GORIZONT 1 [-]          
1 11158U 78118A   22340.03206407 -.00000110  00000+0  00000+0 0  9995
2 11158  11.0793 198.5764 3437203 290.6423  36.3284  1.00306210109994
GORIZONT 2 [-]          
1 11440U 79062A   22339.81978787 -.00000011  00000+0  00000+0 0  9999
2 11440   8.8879 299.8701 0003750 296.5962 200.0656  1.00301474125098
GORIZONT 3 [-]          
1 11648U 79105A   22339.82496954 -.00000182  00000+0  00000+0 0  9998
2 11648   9.0500 301.3286 0013116 219.5083 294.4880  1.00345389109535
GORIZONT 4 [-]          
1 11841U 80049A   22339.54977007 -.00000030  00000+0  00000+0 0  9996
2 11841  10.2085 307.2086 0001087 311.5238  49.1405  0.98629308220831
GORIZONT 5 [-]          
1 13092U 82020A   22339.55360534  .00000017  00000+0  00000+0 0  9993
2 13092  11.2128 312.5331 0033947 216.1240 159.8996  0.98530562108893
GORIZONT 6 [-]          
1 13624U 82103A   22339.65393220  .00000124  00000+0  00000+0 0  9994
2 13624  10.1385 312.5901 0001381 249.9611 305.6962  1.00320580108012
GORIZONT 7 [-]          
1 14160U 83066A   22340.41075972 -.00000107  00000+0  00000+0 0  9998
2 14160  11.8193 322.0209 0009791 318.7758 240.0593  0.98347895142115
GORIZONT 8 [-]          
1 14532U 83118A   22339.78925226 -.00000220  00000+0  00000+0 0  9999
2 14532  11.9997 323.8942 0029878 152.8991  39.4848  0.98271868107837
GORIZONT 9 [-]          
1 14940U 84041A   22339.82214090 -.00000026  00000+0  00000+0 0  9997
2 14940  11.1893 321.9063 0004617 217.4109 259.6237  1.00224640109091
GORIZONT 10 [-]         
1 15144U 84078A   22339.65262472  .00000093  00000+0  00000+0 0  9995
2 15144  11.2882 322.9341 0000395 173.8591   3.9973  1.00251103141644
GORIZONT 11 [-]         
1 15484U 85007A   22339.86739823 -.00000371  00000+0  00000+0 0  9997
2 15484  11.4739 324.9227 0003054 160.1551  23.5905  1.00347492139691
GORIZONT 12 [-]         
1 16769U 86044A   22339.64007767  .00000115  00000+0  00000+0 0  9992
2 16769  12.1106 330.3218 0001708 242.6275 138.1110  1.00230540134341
GORIZONT 13 [-]         
1 17083U 86090A   22339.83587109 -.00000109  00000+0  00000+0 0  9991
2 17083  14.0065 337.5347 0013487 340.0171 168.6253  0.96725975106174
GORIZONT 14 [-]         
1 17969U 87040A   22339.72143792 -.00000171  00000+0  00000+0 0  9993
2 17969  12.9227 328.8964 0031227 177.6286   4.7819  0.97660160107258
GORIZONT 15 [-]         
1 19017U 88028A   22339.68848957 -.00000155  00000+0  00000+0 0  9998
2 19017  14.3060 340.3393 0036837 160.5082 192.9587  0.97829438106871
GORIZONT 16 [-]         
1 19397U 88071A   22339.79247737 -.00000068  00000+0  00000+0 0  9991
2 19397  13.1562 339.0160 0013401  64.3487 130.2807  0.99989283125345
GORIZONT 17 [-]         
1 19765U 89004A   22339.82427781  .00000040  00000+0  00000+0 0  9999
2 19765  13.7138 342.3776 0022830 136.2704 326.0244  0.99063120122795
GORIZONT 18 [-]         
1 20107U 89052A   22339.60501604  .00000069  00000+0  00000+0 0  9998
2 20107  13.7627 343.6351 0033774 320.1752 207.4880  0.99399930121595
GORIZONT 19 [-]         
1 20263U 89081A   22339.83053370 -.00000183  00000+0  00000+0 0  9998
2 20263  13.4906 342.8093 0004016 212.2483 259.6608  1.00354706 34414
GORIZONT 20 [-]         
1 20659U 90054A   22339.82969028 -.00000241  00000+0  00000+0 0  9999
2 20659  13.9366 345.6262 0006835 170.4951 307.5147  1.00236942118766
GORIZONT 21 [-]         
1 20923U 90094A   22339.38834056 -.00000303  00000+0  00000+0 0  9999
2 20923  13.9536 346.3985 0004982 206.3658 326.5268  1.00352194117518
GORIZONT 22 [-]         
1 20953U 90102A   22339.84703368 -.00000321  00000+0  00000+0 0  9994
2 20953  13.9130 346.7646 0002385  26.7741 142.7113  1.00242446117448
GORIZONT 23 [-]         
1 21533U 91046A   22339.72562184 -.00000088  00000+0  00000+0 0  9993
2 21533  14.6905 350.9313 0003714 307.2520 235.6902  0.98909748 33938
GORIZONT 24 [-]         
1 21759U 91074A   22339.83570192 -.00000110  00000+0  00000+0 0  9990
2 21759  14.8527 352.8451 0018123 226.9536 265.1346  0.98442908112262
GORIZONT 25 [-]         
1 21922U 92017A   22339.60534660  .00000089  00000+0  00000+0 0  9999
2 21922  14.3931 352.1610 0028533  85.2184  77.0034  0.99847675112051
GORIZONT 26 [-]         
1 22041U 92043A   22339.60260054  .00000052  00000+0  00000+0 0  9994
2 22041  14.5717 354.1775 0031387 237.3218 280.7964  0.99242288110693
GORIZONT 27 [-]         
1 22245U 92082A   22339.69276065  .00000121  00000+0  00000+0 0  9998
2 22245  14.4876 353.7514 0011493  11.2481 352.0951  1.00168753114204
GORIZONT 28 [-]         
1 22880U 93069A   22340.31438368 -.00000141  00000+0  00000+0 0  9999
2 22880  14.6435 357.6202 0034207 135.7482  53.4982  0.99657913106294
GORIZONT 29 [-]         
1 22907U 93072A   22339.39130417 -.00000287  00000+0  00000+0 0  9994
2 22907  14.5534 357.0771 0009423 345.6054 192.3442  1.00150574106251
GORIZONT 30 [-]         
1 23108U 94030A   22340.44672812 -.00000280  00000+0  00000+0 0  9994
2 23108  14.5690 357.9695 0001919 186.5859 194.1697  1.00252898104576
GORIZONT 31 [-]         
1 23775U 96005A   22339.83542523 -.00000308  00000+0  00000+0 0  9995
2 23775  14.5074   4.2116 0018840 203.0690 276.3414  0.99887664 98171
GORIZONT 32 [-]         
1 23880U 96034A   22339.79448216  .00000034  00000+0  00000+0 0  9998
2 23880  14.4592   4.7231 0007989 358.0968 181.0925  1.00205521 97117
GORIZONT 33 [-]         
1 26372U 00029A   22339.83324740 -.00000174  00000+0  00000+0 0  9992
2 26372  13.2186  15.9704 0002643 106.7471 231.2710  1.00296854 82494
